{
  "type": "FeatureCollection",
  "features": [
    {
      "type": "Feature",
      "properties": {
        "norad_id": 66651,
        "name": "2025-274B",
        "group": "last-30-days",
        "lat": -22.54807068086986,
        "lon": 88.23830477887063,
        "alt_km": 593.8942936466574,
        "timestamp": "2025-12-10T05:46:12.576589+00:00",
        "meta_object_name": "2025-274B",
        "meta_object_id": "2025-274B",
        "meta_epoch": "2025-12-09T17:35:40.877664",
        "meta_mean_motion": 14.91760107,
        "meta_eccentricity": 0.001074,
        "meta_inclination": 97.7381,
        "meta_ra_of_asc_node": 270.9768,
        "meta_arg_of_pericenter": 262.2658,
        "meta_mean_anomaly": 97.7341,
        "meta_ephemeris_type": 0,
        "meta_classification_type": "U",
        "meta_norad_cat_id": 66651,
        "meta_element_set_no": 999,
        "meta_rev_at_epoch": 195,
        "meta_bstar": 0.0006145,
        "meta_mean_motion_dot": 6.145e-05,
        "meta_mean_motion_ddot": 0,
        "tle_line1": "1 66651U 25274B   25343.73311201  .00006145  00000+0  61450-3 0  9993",
        "tle_line2": "2 66651  97.7381 270.9768 0010740 262.2658  97.7341 14.91760107  1955"
      },
      "geometry": {
        "type": "Point",
        "coordinates": [
          88.23830477887063,
          -22.54807068086986
        ]
      }
    },
    {
      "type": "Feature",
      "properties": {
        "norad_id": 66652,
        "name": "2025-274C",
        "group": "last-30-days",
        "lat": -29.234335470235493,
        "lon": 87.11369047853333,
        "alt_km": 594.1932882106239,
        "timestamp": "2025-12-10T05:46:12.576599+00:00",
        "meta_object_name": "2025-274C",
        "meta_object_id": "2025-274C",
        "meta_epoch": "2025-12-09T12:44:10.519584",
        "meta_mean_motion": 14.91874076,
        "meta_eccentricity": 0.0010407,
        "meta_inclination": 97.7387,
        "meta_ra_of_asc_node": 270.7817,
        "meta_arg_of_pericenter": 269.9894,
        "meta_mean_anomaly": 90.0132,
        "meta_ephemeris_type": 0,
        "meta_classification_type": "U",
        "meta_norad_cat_id": 66652,
        "meta_element_set_no": 999,
        "meta_rev_at_epoch": 192,
        "meta_bstar": 0.00037452,
        "meta_mean_motion_dot": 3.732e-05,
        "meta_mean_motion_ddot": 0,
        "tle_line1": "1 66652U 25274C   25343.53067731  .00003732  00000+0  37452-3 0  9992",
        "tle_line2": "2 66652  97.7387 270.7817 0010407 269.9894  90.0132 14.91874076  1923"
      },
      "geometry": {
        "type": "Point",
        "coordinates": [
          87.11369047853333,
          -29.234335470235493
        ]
      }
    },
    {
      "type": "Feature",
      "properties": {
        "norad_id": 66653,
        "name": "2025-274D",
        "group": "last-30-days",
        "lat": -29.552640362637234,
        "lon": 87.05631496439321,
        "alt_km": 593.3768898161707,
        "timestamp": "2025-12-10T05:46:12.576610+00:00",
        "meta_object_name": "2025-274D",
        "meta_object_id": "2025-274D",
        "meta_epoch": "2025-12-09T12:44:05.312256",
        "meta_mean_motion": 14.91878474,
        "meta_eccentricity": 0.001128,
        "meta_inclination": 97.7386,
        "meta_ra_of_asc_node": 270.7814,
        "meta_arg_of_pericenter": 265.8961,
        "meta_mean_anomaly": 94.0969,
        "meta_ephemeris_type": 0,
        "meta_classification_type": "U",
        "meta_norad_cat_id": 66653,
        "meta_element_set_no": 999,
        "meta_rev_at_epoch": 192,
        "meta_bstar": 0.00038978,
        "meta_mean_motion_dot": 3.888e-05,
        "meta_mean_motion_ddot": 0,
        "tle_line1": "1 66653U 25274D   25343.53061704  .00003888  00000+0  38978-3 0  9993",
        "tle_line2": "2 66653  97.7386 270.7814 0011280 265.8961  94.0969 14.91878474  1928"
      },
      "geometry": {
        "type": "Point",
        "coordinates": [
          87.05631496439321,
          -29.552640362637234
        ]
      }
    },
    {
      "type": "Feature",
      "properties": {
        "norad_id": 66654,
        "name": "JACK E",
        "group": "last-30-days",
        "lat": -37.55238040462056,
        "lon": 85.48137331096038,
        "alt_km": 592.3401734053568,
        "timestamp": "2025-12-10T05:46:12.576620+00:00",
        "meta_object_name": "JACK E",
        "meta_object_id": "2025-274E",
        "meta_epoch": "2025-12-09T09:28:53.341248",
        "meta_mean_motion": 14.9205262,
        "meta_eccentricity": 0.00118648,
        "meta_inclination": 97.7388,
        "meta_ra_of_asc_node": 270.6521,
        "meta_arg_of_pericenter": 268.0515,
        "meta_mean_anomaly": 91.9345,
        "meta_ephemeris_type": 0,
        "meta_classification_type": "U",
        "meta_norad_cat_id": 66654,
        "meta_element_set_no": 999,
        "meta_rev_at_epoch": 190,
        "meta_bstar": 0.00043977089,
        "meta_mean_motion_dot": 4.414e-05,
        "meta_mean_motion_ddot": 0,
        "tle_line1": "1 66654U 25274E   25343.39506182  .00004414  00000+0  43977-3 0  9993",
        "tle_line2": "2 66654  97.7388 270.6521 0011864 268.0515  91.9345 14.92052620  1903"
      },
      "geometry": {
        "type": "Point",
        "coordinates": [
          85.48137331096038,
          -37.55238040462056
        ]
      }
    },
    {
      "type": "Feature",
      "properties": {
        "norad_id": 66655,
        "name": "2025-274F",
        "group": "last-30-days",
        "lat": -49.5011825610103,
        "lon": 82.32982335136745,
        "alt_km": 596.8276666110132,
        "timestamp": "2025-12-10T05:46:12.576634+00:00",
        "meta_object_name": "2025-274F",
        "meta_object_id": "2025-274F",
        "meta_epoch": "2025-12-08T18:57:10.718496",
        "meta_mean_motion": 14.92504145,
        "meta_eccentricity": 0.00054909,
        "meta_inclination": 97.7329,
        "meta_ra_of_asc_node": 270.0601,
        "meta_arg_of_pericenter": 323.8556,
        "meta_mean_anomaly": 36.2292,
        "meta_ephemeris_type": 0,
        "meta_classification_type": "U",
        "meta_norad_cat_id": 66655,
        "meta_element_set_no": 999,
        "meta_rev_at_epoch": 181,
        "meta_bstar": 0.001516128,
        "meta_mean_motion_dot": 0.00015539,
        "meta_mean_motion_ddot": 0,
        "tle_line1": "1 66655U 25274F   25342.78970739  .00015539  00000+0  15161-2 0  9992",
        "tle_line2": "2 66655  97.7329 270.0601 0005490 323.8556  36.2292 14.92504145  1812"
      },
      "geometry": {
        "type": "Point",
        "coordinates": [
          82.32982335136745,
          -49.5011825610103
        ]
      }
    },
    {
      "type": "Feature",
      "properties": {
        "norad_id": 66656,
        "name": "2025-274G",
        "group": "last-30-days",
        "lat": -46.30465781560095,
        "lon": 83.30355866632291,
        "alt_km": 591.0676244307797,
        "timestamp": "2025-12-10T05:46:12.576647+00:00",
        "meta_object_name": "2025-274G",
        "meta_object_id": "2025-274G",
        "meta_epoch": "2025-12-09T17:29:26.764800",
        "meta_mean_motion": 14.92244035,
        "meta_eccentricity": 0.0012484,
        "meta_inclination": 97.7385,
        "meta_ra_of_asc_node": 270.9831,
        "meta_arg_of_pericenter": 268.558,
        "meta_mean_anomaly": 91.4209,
        "meta_ephemeris_type": 0,
        "meta_classification_type": "U",
        "meta_norad_cat_id": 66656,
        "meta_element_set_no": 999,
        "meta_rev_at_epoch": 195,
        "meta_bstar": 0.00047846,
        "meta_mean_motion_dot": 4.831e-05,
        "meta_mean_motion_ddot": 0,
        "tle_line1": "1 66656U 25274G   25343.72878200  .00004831  00000+0  47846-3 0  9997",
        "tle_line2": "2 66656  97.7385 270.9831 0012484 268.5580  91.4209 14.92244035  1957"
      },
      "geometry": {
        "type": "Point",
        "coordinates": [
          83.30355866632291,
          -46.30465781560095
        ]
      }
    },
    {
      "type": "Feature",
      "properties": {
        "norad_id": 66657,
        "name": "SPIRONE",
        "group": "last-30-days",
        "lat": -54.8085897766694,
        "lon": 80.37066817893606,
        "alt_km": 592.5782874361403,
        "timestamp": "2025-12-10T05:46:12.576657+00:00",
        "meta_object_name": "SPIRONE",
        "meta_object_id": "2025-274H",
        "meta_epoch": "2025-12-08T20:32:05.028864",
        "meta_mean_motion": 14.92414576,
        "meta_eccentricity": 0.0010976,
        "meta_inclination": 97.7386,
        "meta_ra_of_asc_node": 270.128,
        "meta_arg_of_pericenter": 290.7866,
        "meta_mean_anomaly": 69.2177,
        "meta_ephemeris_type": 0,
        "meta_classification_type": "U",
        "meta_norad_cat_id": 66657,
        "meta_element_set_no": 999,
        "meta_rev_at_epoch": 182,
        "meta_bstar": 0.00036917,
        "meta_mean_motion_dot": 3.729e-05,
        "meta_mean_motion_ddot": 0,
        "tle_line1": "1 66657U 25274H   25342.85561376  .00003729  00000+0  36917-3 0  9996",
        "tle_line2": "2 66657  97.7386 270.1280 0010976 290.7866  69.2177 14.92414576  1829"
      },
      "geometry": {
        "type": "Point",
        "coordinates": [
          80.37066817893606,
          -54.8085897766694
        ]
      }
    }
  ]
}